satname,norad_id,inclination_deg,eccentricity,mean_motion_rev_per_day,perigee_km,apogee_km,l1,l2
STARLINK-1411,45706,53.0559,0.0001206,15.34784388,460.73612893958216,462.38586409634354,1 45706U 20035BB  25284.33335648  .00090956  00000+0  26381-2 0  9998,2 45706  53.0559 337.3206 0001206  56.9136 212.3483 15.34784388  5924
STARLINK-1423,45710,53.0549,0.0001435,15.06401472,546.2132596032898,548.2008333446274,1 45710U 20035BF  25283.88903249  .00002217  00000+0  16770-3 0  9995,2 45710  53.0549 349.1045 0001435  94.4212 265.6941 15.06401472296578
STARLINK-1433,45711,53.0544,0.0001222,15.06423224,546.2941117416758,547.9866495335036,1 45711U 20035BG  25283.60519232  .00003688  00000+0  26616-3 0  9994,2 45711  53.0544 350.3743 0001222  93.9163 266.1966 15.06423224296523
STARLINK-1434,45712,53.0528,0.0001603,15.13446056,524.5935520584562,526.8069222766917,1 45712U 20035BH  25283.87756975  .00022412  00000+0  12521-2 0  9996,2 45712  53.0528 346.4764 0001603 347.0263  13.0688 15.13446056296618
STARLINK-1465,45731,53.0564,0.0001875,15.06395371,545.9272396781853,548.5242507076327,1 45731U 20038B   25284.03647385 -.00001417  00000+0 -76238-4 0  9994,2 45731  53.0564 188.4398 0001875  95.6701 264.4502 15.06395371293631
STARLINK-1471,45735,53.0503,0.0003465,15.39810842,444.3033943797527,449.0329843759919,1 45735U 20038F   25283.98563177  .00018033  00000+0  45683-3 0  9996,2 45735  53.0503 133.8663 0003465 116.7192 243.4166 15.39810842294403
STARLINK-1474,45738,53.0369,0.0004589,15.63354359,374.8753699435665,381.07613022559417,1 45738U 20038J   25283.90051998  .00060565  00000+0  64674-3 0  9992,2 45738  53.0369  95.3098 0004589 195.1937 164.8939 15.63354359294931
STARLINK-1475,45739,53.0526,0.0002473,15.67580754,364.15895103826097,367.49451550073627,1 45739U 20038K   25284.33335648  .00233714  00000+0  20513-2 0  9999,2 45739  53.0526  60.7210 0002473 215.9079 265.8162 15.67580754  5874
STARLINK-1480,45741,53.0529,0.0001332,15.06416109,546.2397367617095,548.0846364650233,1 45741U 20038M   25283.75265438  .00009938  00000+0  68485-3 0  9996,2 45741  53.0529 189.7137 0001332  86.8271 273.2871 15.06416109293607
STARLINK-1500,45744,53.041,0.0005039,15.26490982,482.8529503726022,489.77094202057924,1 45744U 20038Q   25283.68485745  .00017183  00000+0  66124-3 0  9995,2 45744  53.0410 171.8470 0005039 122.7617 237.3867 15.26490982293848
STARLINK-1504,45746,53.0291,0.0006719,15.37054417,450.2340423898304,459.41617687275266,1 45746U 20038S   25284.30850721  .00072787  00000+0  19687-2 0  9999,2 45746  53.0291 135.2958 0006719 111.0627 249.1094 15.37054417294407
STARLINK-1506,45747,53.0483,0.0004709,15.2060226,500.7820082344133,507.2636263503391,1 45747U 20038T   25283.95316292  .00007031  00000+0  33109-3 0  9996,2 45747  53.0483 172.2063 0004709 147.9525 212.1757 15.20602260293863
STARLINK-1464,45751,53.0552,0.0001338,15.0640277,546.2764577991011,548.1296788013778,1 45751U 20038X   25283.95354361  .00004591  00000+0  32689-3 0  9990,2 45751  53.0552 168.8109 0001338  90.8008 269.3135 15.06402770293912
STARLINK-1477,45754,53.0525,0.0001434,15.06397799,546.2252077439389,548.2113996450389,1 45754U 20038AA  25283.96827841  .00011257  00000+0  77347-3 0  9999,2 45754  53.0525 168.7435 0001434  98.0474 262.0678 15.06397799293916
STARLINK-1478,45755,53.0524,0.0001376,15.06410295,546.2270818057796,548.1329290456715,1 45755U 20038AB  25283.98670810  .00006457  00000+0  45185-3 0  9995,2 45755  53.0524 168.6646 0001376  98.9205 261.1939 15.06410295293901
STARLINK-1484,45756,53.0154,0.0003342,15.56763475,394.76700362698193,399.295526095214,1 45756U 20038AC  25283.93385330  .00073542  00000+0  10067-2 0  9990,2 45756  53.0154  82.2452 0003342 170.1275 189.9802 15.56763475295119
STARLINK-1493,45759,53.0528,0.0001497,15.06396152,546.1866250845451,548.2600779737922,1 45759U 20038AF  25283.97564428  .00002056  00000+0  15693-3 0  9997,2 45759  53.0528 168.7125 0001497  81.7298 278.3860 15.06396152293906
STARLINK-1494,45760,53.0531,9.41e-05,15.49531724,417.45543522423304,418.7344860792282,1 45760U 20038AG  25284.33335648  .00203514  00000+0  35445-2 0  9998,2 45760  53.0531 158.5038 0000941  91.8063 116.9358 15.49531724  5810
STARLINK-1502,45764,53.0523,0.0001202,15.06417945,546.3241393579337,547.9889799296725,1 45764U 20038AL  25283.94247670  .00007347  00000+0  51135-3 0  9996,2 45764  53.0523 168.8582 0001202  91.9008 268.2118 15.06417945293910
STARLINK-1470,45772,53.0479,0.0005094,15.16093597,514.1477697417431,521.1732082235194,1 45772U 20038AU  25284.00734494  .00022757  00000+0  11796-2 0  9998,2 45772  53.0479 142.5524 0005094 131.4911 228.6520 15.16093597294282
STARLINK-1482,45773,53.0528,0.0001562,15.06402471,546.1222464277098,548.2857229513265,1 45773U 20038AV  25283.97381694  .00003908  00000+0  28110-3 0  9990,2 45773  53.0528 148.7199 0001562  91.5698 268.5470 15.06402471294199
STARLINK-1485,45774,53.0428,0.0001163,15.89747812,302.21232045049146,303.7663504361153,1 45774U 20038AW  25284.33335648  .00480516  00000+0  15045-2 0  9996,2 45774  53.0428  88.1206 0001163 270.2982  11.6186 15.89747812  6008
STARLINK-1496,45780,53.0518,0.0001256,15.06394189,546.3595418577879,548.0991938893976,1 45780U 20038BC  25284.00697901 -.00000154  00000+0  85648-5 0  9996,2 45780  53.0518 148.5703 0001256  98.4294 261.6838 15.06394189294180
STARLINK-1497,45781,53.0414,0.0011149,15.47425342,416.6770006903844,431.84498773788255,1 45781U 20038BD  25284.33335648  .00100720  00000+0  19135-2 0  9994,2 45781  53.0414  98.8556 0011149 150.7349 238.2793 15.47425342  5916
STARLINK-1510,45784,53.035,0.0006357,15.62475378,376.2128388010715,384.805781719936,1 45784U 20038BG  25284.33335648  .00234115  00000+0  25152-2 0  9999,2 45784  53.0350  77.2874 0006357 115.1315 131.4368 15.62475378  5941
STARLINK-1513,45786,53.0536,0.0001497,15.06393299,546.1953678606751,548.268823367901,1 45786U 20038BJ  25283.97011634  .00000293  00000+0  38569-4 0  9992,2 45786  53.0536 148.7365 0001497  90.9943 269.1217 15.06393299294193
STARLINK-1522,46027,53.0546,0.0001594,15.06402691,546.0994111776481,548.307209668611,1 46027U 20055A   25284.14979952 -.00001783  00000+0 -10079-3 0  9998,2 46027  53.0546  77.9249 0001594  99.5441 260.5728 15.06402691286340
STARLINK-1523,46028,53.0542,0.0001371,15.06398639,546.2662633512227,548.1651950695714,1 46028U 20055B   25284.16454395 -.00000238  00000+0  29483-5 0  9994,2 46028  53.0542  77.8623 0001371  91.0017 269.1129 15.06398639286369
